2015022800 - METAR SBGL 280000Z 14006KT CAVOK 27/22 Q1009=
2015022801 - METAR SBGL 280100Z 00000KT CAVOK 27/23 Q1010=
2015022802 - METAR SBGL 280200Z 00000KT CAVOK 27/23 Q1010=
2015022803 - METAR SBGL 280300Z 32002KT CAVOK 27/22 Q1010=
2015022804 - METAR SBGL 280400Z 30003KT CAVOK 26/23 Q1009=
2015022805 - METAR SBGL 280500Z 33005KT CAVOK 26/23 Q1009=
2015022806 - METAR SBGL 280600Z 32004KT CAVOK 25/23 Q1008=
2015022807 - METAR SBGL 280700Z 31003KT CAVOK 25/23 Q1008=
2015022808 - METAR SBGL 280800Z 32003KT CAVOK 25/23 Q1009=
2015022809 - METAR SBGL 280900Z 33007KT 9999 FEW040 25/22 Q1010=
2015022810 - METAR SBGL 281000Z 25006KT 9999 FEW020 SCT050 28/21 Q1010=
2015022811 - METAR SBGL 281100Z 18007KT 9999 SCT020 SCT100 27/22 Q1011=
2015022812 - METAR SBGL 281200Z 19008KT 9999 SCT020 SCT100 30/24 Q1012=
2015022813 - METAR SBGL 281300Z 21010KT 9999 SCT020 SCT100 31/22 Q1013=
2015022814 - METAR SBGL 281400Z 19012KT 9999 SCT025 FEW030TCU SCT100 31/22 Q1013=
2015022815 - METAR SBGL 281500Z 18011KT 9999 SCT025 FEW030TCU SCT100 31/21 Q1012=
2015022816 - METAR SBGL 281600Z 21015KT 9999 SCT025 FEW030TCU 31/22 Q1012=
2015022817 - METAR SBGL 281700Z 20013KT 9999 VCSH SCT025 FEW030TCU 31/22 Q1012=
2015022818 - METAR SBGL 281800Z 22014KT 9999 FEW025 FEW030TCU 30/22 Q1012=
2015022819 - METAR SBGL 281900Z 16013KT 9999 SCT025 FEW030TCU 29/22 Q1012=
2015022820 - METAR SBGL 282000Z 15012KT 9999 SCT025 FEW030TCU 29/22 Q1012=
2015022821 - METAR SBGL 282100Z 15015KT 9999 4000S -RA SCT020 FEW030TCU BKN070 27/23 Q1013=
2015022821 - SPECI SBGL 282120Z 14013KT 4000 -RA FEW009 SCT020 FEW030TCU BKN040 25/23 Q1013=
2015022822 - METAR SBGL 282200Z 16010KT 4000 -RA FEW009 SCT017 BKN040 25/23 Q1013=
2015022822 - SPECI SBGL 282212Z 15010KT 8000 SCT017 BKN040 25/23 Q1014=
2015022823 - METAR SBGL 282300Z 14013KT 9999 SCT020 BKN040 26/23 Q1014=
